OBJECT_NAME,OBJECT_ID,EPOCH,MEAN_MOTION,ECCENTRICITY,INCLINATION,RA_OF_ASC_NODE,ARG_OF_PERICENTER,MEAN_ANOMALY,EPHEMERIS_TYPE,CLASSIFICATION_TYPE,NORAD_CAT_ID,ELEMENT_SET_NO,REV_AT_EPOCH,BSTAR,MEAN_MOTION_DOT,MEAN_MOTION_DDOT
SHIJIAN-31 (SJ-31),2026-136A,2026-07-10T09:13:39.427104,1.92225274,.6940281,63.4854,353.6902,171.8249,212.3005,0,U,69570,999,53,0,-.99E-6,0
GUOWANG OBJECT A,2026-137A,2026-07-09T08:51:32.527872,13.89812603,.00125573,49.9993,167.0911,299.3374,60.6270,0,U,69572,999,310,.29402617E-4,-.11E-5,0
GUOWANG OBJECT B,2026-137B,2026-07-09T15:41:33.480672,13.89803849,.001186,50.0016,165.9303,298.8434,61.1273,0,U,69573,999,315,-.55136E-4,-.214E-5,0
GUOWANG OBJECT C,2026-137C,2026-07-09T15:39:58.501152,13.89815350,.00119046,49.9962,165.9102,300.6112,59.3612,0,U,69574,999,315,.72323156E-4,-.57E-6,0
GUOWANG OBJECT D,2026-137D,2026-07-09T15:38:20.572800,13.89827781,.00110869,49.9953,165.9027,299.2996,60.6794,0,U,69575,999,315,-.17667174E-4,-.168E-5,0
GUOWANG OBJECT E,2026-137E,2026-07-09T15:36:55.900800,13.89825186,.00112638,50.0036,165.9215,302.1342,57.8463,0,U,69576,999,315,-.55274093E-4,-.214E-5,0
GUOWANG OBJECT F,2026-137F,2026-07-09T15:35:44.385792,13.89809494,.00108496,50.0025,165.9144,302.1836,57.8010,0,U,69577,999,315,-.5598398E-4,-.215E-5,0
GUOWANG OBJECT G,2026-137G,2026-07-09T19:01:34.515840,13.89795125,.00108105,49.9977,165.3173,302.3991,57.5861,0,U,69578,999,317,.1858455E-5,-.144E-5,0
GUOWANG OBJECT H,2026-137H,2026-07-10T00:11:03.674688,13.89776278,.0010249,50.0012,164.4679,306.3680,53.6272,0,U,69579,999,320,-.23862E-4,-.175E-5,0
GUOWANG OBJECT J,2026-137J,2026-06-27T06:41:01.268160,13.91997107,.0011832,49.9961,215.0979,257.3150,102.6427,0,U,69580,999,143,.13174E-3,.22E-6,0
CZ-12 R/B,2026-137K,2026-07-10T07:21:47.424960,14.11693798,.00774604,49.9885,159.9831,192.9836,166.9077,0,U,69581,999,327,.98074227E-4,.31E-6,0
CENTISPACE-1 GROUP 05 OBJECT A,2026-138A,2026-07-10T10:41:45.066336,14.15470715,.00110574,55.1385,195.2888,333.8191,26.2223,0,U,69582,999,331,-.515028E-6,-.154E-5,0
CENTISPACE-1 GROUP 05 OBJECT B,2026-138B,2026-07-10T07:14:05.108928,14.15650892,.00100155,55.1381,195.7932,333.8060,26.2406,0,U,69583,999,329,-.49330131E-4,-.251E-5,0
CENTISPACE-1 GROUP 05 OBJECT D,2026-138D,2026-07-10T10:31:18.160896,14.15920758,.00095429,55.1385,195.2493,334.9114,25.1396,0,U,69585,999,331,-.10663654E-3,-.365E-5,0
CENTISPACE-1 GROUP 05 OBJECT F,2026-138F,2026-07-09T10:48:03.070656,14.15911299,.00090797,55.1382,198.9095,337.2600,22.7971,0,U,69587,999,317,-.10716413E-3,-.366E-5,0
CENTISPACE-1 GROUP 05 OBJECT G,2026-138G,2026-07-10T10:27:22.705344,14.16074922,.00084337,55.1382,195.2407,339.3306,20.7326,0,U,69588,999,331,-.12774212E-3,-.407E-5,0
SPACEMOBILE-008,2026-139A,2026-07-09T23:59:35.858976,15.12797717,.00047862,52.9940,158.9953,44.1815,315.9557,0,U,69589,999,343,.35582335E-4,.331E-5,0
SPACEMOBILE-009,2026-139B,2026-07-09T08:10:28.974432,15.12690226,.00050087,52.9929,161.9998,38.0005,322.1339,0,U,69590,999,333,.4037426E-4,.414E-5,0
SPACEMOBILE-010,2026-139C,2026-07-09T14:34:37.932672,15.12521495,.00049022,52.9935,160.8181,29.8087,330.3183,0,U,69591,999,338,.33613821E-4,.292E-5,0
KUIPER-00481,2026-140C,2026-07-10T13:55:31.807200,15.37933276,.00109037,51.8773,285.5071,264.7381,95.2362,0,U,69594,999,483,.49636487E-3,.1849E-3,0
KUIPER-00490,2026-140D,2026-07-09T14:45:44.294400,15.37868929,.00065405,51.8782,290.2805,318.3400,41.7088,0,U,69595,999,468,.54112136E-3,.20131E-3,0
KUIPER-00496,2026-140F,2026-07-10T08:46:31.343520,15.34427947,.00103838,51.8780,287.0540,37.4339,322.7368,0,U,69597,999,479,.33771893E-3,.11083E-3,0
